{
  "type": "FeatureCollection",
  "features": [
    {
      "type": "Feature",
      "properties": {
        "norad_id": 54259,
        "name": "EUTELSAT 10B",
        "group": "eutelsat",
        "lat": 0.021597805328716625,
        "lon": 91.76671312850573,
        "alt_km": 35782.90586507785,
        "timestamp": "2025-12-18T23:35:48.719020+00:00",
        "meta_object_name": "EUTELSAT 10B",
        "meta_object_id": "2022-157A",
        "meta_epoch": "2025-12-18T13:20:33.903744",
        "meta_mean_motion": 1.00272196,
        "meta_eccentricity": 7.484e-05,
        "meta_inclination": 0.0618,
        "meta_ra_of_asc_node": 98.3374,
        "meta_arg_of_pericenter": 10.8156,
        "meta_mean_anomaly": 188.3938,
        "meta_ephemeris_type": 0,
        "meta_classification_type": "U",
        "meta_norad_cat_id": 54259,
        "meta_element_set_no": 999,
        "meta_rev_at_epoch": 1121,
        "meta_bstar": 0,
        "meta_mean_motion_dot": 9.3e-07,
        "meta_mean_motion_ddot": 0,
        "tle_line1": "1 54259U 22157A   25352.55594796  .00000093  00000+0  00000+0 0  9999",
        "tle_line2": "2 54259   0.0618  98.3374 0000748  10.8156 188.3938  1.00272196 11219"
      },
      "geometry": {
        "type": "Point",
        "coordinates": [
          91.76671312850573,
          0.021597805328716625
        ]
      }
    },
    {
      "type": "Feature",
      "properties": {
        "norad_id": 59346,
        "name": "EUTELSAT 36D",
        "group": "eutelsat",
        "lat": 0.04659514506849811,
        "lon": 117.62037794680077,
        "alt_km": 35786.98287896377,
        "timestamp": "2025-12-18T23:35:48.719032+00:00",
        "meta_object_name": "EUTELSAT 36D",
        "meta_object_id": "2024-059A",
        "meta_epoch": "2025-12-17T22:03:22.894272",
        "meta_mean_motion": 1.00271901,
        "meta_eccentricity": 6.421e-05,
        "meta_inclination": 0.025,
        "meta_ra_of_asc_node": 12.6237,
        "meta_arg_of_pericenter": 351.154,
        "meta_mean_anomaly": 89.689,
        "meta_ephemeris_type": 0,
        "meta_classification_type": "U",
        "meta_norad_cat_id": 59346,
        "meta_element_set_no": 999,
        "meta_rev_at_epoch": 633,
        "meta_bstar": 0,
        "meta_mean_motion_dot": 0,
        "meta_mean_motion_ddot": 0,
        "tle_line1": "1 59346U 24059A   25351.91901498  .00000000  00000+0  00000+0 0  9992",
        "tle_line2": "2 59346   0.0250  12.6237 0000642 351.1540  89.6890  1.00271901  6331"
      },
      "geometry": {
        "type": "Point",
        "coordinates": [
          117.62037794680077,
          0.04659514506849811
        ]
      }
    }
  ]
}